[{"OBJECT_NAME":"STARLINK-31763","OBJECT_ID":"2024-080Y","EPOCH":"2026-03-09T22:07:05.385504","MEAN_MOTION":15.27570115,"ECCENTRICITY":0.0001447,"INCLINATION":43.0024,"RA_OF_ASC_NODE":36.9795,"ARG_OF_PERICENTER":258.5515,"MEAN_ANOMALY":101.5174,"EPHEMERIS_TYPE":0,"CLASSIFICATION_TYPE":"U","NORAD_CAT_ID":59623,"ELEMENT_SET_NO":999,"REV_AT_EPOCH":10456,"BSTAR":-1.9263915e-5,"MEAN_MOTION_DOT":-7.92e-6,"MEAN_MOTION_DDOT":0},{"OBJECT_NAME":"PEGASUS R\/B","OBJECT_ID":"2007-015B","EPOCH":"2026-03-09T10:58:33.801024","MEAN_MOTION":15.26741121,"ECCENTRICITY":0.00105976,"INCLINATION":97.9168,"RA_OF_ASC_NODE":31.3919,"ARG_OF_PERICENTER":317.6341,"MEAN_ANOMALY":42.4077,"EPHEMERIS_TYPE":0,"CLASSIFICATION_TYPE":"U","NORAD_CAT_ID":31305,"ELEMENT_SET_NO":999,"REV_AT_EPOCH":3383,"BSTAR":0.00044093522,"MEAN_MOTION_DOT":0.00011537,"MEAN_MOTION_DDOT":0}]
